SPACEMOBILE-004         
1 61049U 24163E   26189.98408977  .00011730  00000+0  53864-3 0  9994
2 61049  52.9658 208.6863 0007038 205.0590 155.0064 15.20818344101086
CZ-8A R/B               
1 66004U 25231K   26190.27210945 -.00000032  00000+0  47124-4 0  9994
2 66004  50.0053 305.3581 0116520 301.7613  57.1992 14.30161100 38104
SZ-21 MODULE            
1 66515U 25246C   26189.99581375  .00039693  00000+0  22393-3 0  9996
2 66515  41.4703 171.3042 0006793 177.6183 182.4695 15.78344685 37185
SPACEMOBILE-006         
1 67232U 25309A   26189.16910173  .00000190  00000+0  24444-4 0  9994
2 67232  52.9947 235.5229 0010630 192.2291 167.8446 15.18644437 29787
SPACEMOBILE-008         
1 69589U 26139A   26190.27299870  .00000479  00000+0  43935-4 0  9997
2 69589  52.9939 162.2948 0004746  42.3763 317.7594 15.12796930  3321
SPACEMOBILE-009         
1 69590U 26139B   26189.94419122  .00000456  00000+0  42786-4 0  9993
2 69590  52.9929 163.7993 0004980  36.9056 323.2277 15.12689610  3272
SPACEMOBILE-010         
1 69591U 26139C   26189.41798456  .00000482  00000+0  44398-4 0  9996
2 69591  52.9933 166.2159 0004820  26.6938 333.4300 15.12519992  3206
